*******************************************************************************
 Revised: Jun 17, 2016                Uranus                                799
 
 PHYSICAL DATA (updated 2009-May-26):
  Mass (10^24 kg)       =    86.8103      Density (g/cm^3)       =  1.318
  Equat. radius (1 bar) = 25559+-4 km     Polar radius (km)      = 24973+-20
  Volumetric mean radius= 25362+-12 km    Flattening             =  0.02293

  Rotation period       = 17.24+-0.01 hr  Rot. rate(10^-4 rad/s) =  1.012   
  m = w^2a^3/GM         =  0.02954        Hydrostatic flat., fh  =  0.01987
  Inferred rot. period  = 17.14+-0.9 hr   ks = 3*J2/m            =  0.357
  Mom. of inert. I/MRo^2=  0.225          I/MRo^2 (upper bound)  =  0.232 
  Rocky core mass (Mc/M)=  0.0012         Y factor (He/H ratio)  =  0.262+-.048

  GM (km^3/s^2)         = 5,793,966       GM 1-sigma( km^3/s^2)  = +-23
  Equ. grav, ge (m/s^2) =  8.87           Pol. grav, gp (m/s^2)  =  9.19+-0.02

  Geometric albedo      =  0.51           Visual magnitude V(1,0)= -7.19
  Vis. mag. (opposition)= +5.52           Obliquity to orbit     = 97.86 deg
  Sidereal orbit period = 84.016846 yr    Sidereal orbit period  = 30687.153 d
  Mean daily motion     = 0.01176904 dg/d Mean orbit velocity    =  6.8352 km/s

  Atmos. temp. (1 bar)  =  76+-2 K        Heat flow/mass (x10^7) = 
  Planetary Solar Const =   3.71 W/m^2    Dipole tilt/offset     = 58.6dg/0.3Rp 
  Escape velocity (km/s)=  21.3           Mag.dip.mom(gauss-Rp^3)= 0.23
  Aroche(ice)/Rp        =  2.20           Hill's sphere rad., Rp = 2700
*******************************************************************************
 
 
*******************************************************************************
Ephemeris / WWW_USER Tue Jun 20 14:51:42 2017 Pasadena, USA      / Horizons    
*******************************************************************************
Target body name: Uranus (799)                    {source: ura111}
Center body name: Sun (10)                        {source: DE431mx}
Center-site name: BODY CENTER
*******************************************************************************
Start time      : A.D. 2017-Jun-19 00:00:00.0000 TDB
Stop  time      : A.D. 2030-Jun-19 00:00:00.0000 TDB
Step-size       : 1440 minutes
*******************************************************************************
Center geodetic : 0.00000000,0.00000000,0.0000000 {E-lon(deg),Lat(deg),Alt(km)}
Center cylindric: 0.00000000,0.00000000,0.0000000 {E-lon(deg),Dxy(km),Dz(km)}
Center radii    : 696000.0 x 696000.0 x 696000.0 k{Equator, meridian, pole}    
Output units    : KM-S                                                         
Output type     : GEOMETRIC cartesian states
Output format   : 1 (position only)
Reference frame : ICRF/J2000.0                                                 
Coordinate systm: Ecliptic and Mean Equinox of Reference Epoch                 
*******************************************************************************
            JDTDB,            Calendar Date (TDB),                      X,                      Y,                      Z,
**************************************************************************************************************************
$$SOE
2459543.500000000, A.D. 2021-Nov-25 00:00:00.0000,  2.168822142358501E+09,  2.001415491887074E+09, -2.067069975286186E+07,
2459544.500000000, A.D. 2021-Nov-26 00:00:00.0000,  2.168419133264089E+09,  2.001821523627261E+09, -2.066399070862532E+07,
2459545.500000000, A.D. 2021-Nov-27 00:00:00.0000,  2.168016044022521E+09,  2.002227477203671E+09, -2.065728292080462E+07,
2459546.500000000, A.D. 2021-Nov-28 00:00:00.0000,  2.167612860217818E+09,  2.002633355498966E+09, -2.065057814485502E+07,
2459547.500000000, A.D. 2021-Nov-29 00:00:00.0000,  2.167209595155982E+09,  2.003039157323893E+09, -2.064386372456336E+07,
2459548.500000000, A.D. 2021-Nov-30 00:00:00.0000,  2.166806245777557E+09,  2.003444880289046E+09, -2.063716184953368E+07,
2459549.500000000, A.D. 2021-Dec-01 00:00:00.0000,  2.166402792371596E+09,  2.003850531640121E+09, -2.063045117609036E+07,
2459550.500000000, A.D. 2021-Dec-02 00:00:00.0000,  2.165999262592429E+09,  2.004256106503250E+09, -2.062372282979000E+07,
2459551.500000000, A.D. 2021-Dec-03 00:00:00.0000,  2.165595655421751E+09,  2.004661602855592E+09, -2.061699292362022E+07,
2459552.500000000, A.D. 2021-Dec-04 00:00:00.0000,  2.165191976699301E+09,  2.005067019756320E+09, -2.061025891734421E+07,
2459553.500000000, A.D. 2021-Dec-05 00:00:00.0000,  2.164788219656335E+09,  2.005472355573413E+09, -2.060354286319721E+07,
2459554.500000000, A.D. 2021-Dec-06 00:00:00.0000,  2.164384366671232E+09,  2.005877616364941E+09, -2.059682857178402E+07,
2459555.500000000, A.D. 2021-Dec-07 00:00:00.0000,  2.163980438559467E+09,  2.006282797491191E+09, -2.059011682565916E+07,
2459556.500000000, A.D. 2021-Dec-08 00:00:00.0000,  2.163576413089448E+09,  2.006687901512815E+09, -2.058342418254662E+07,
2459557.500000000, A.D. 2021-Dec-09 00:00:00.0000,  2.163172283998496E+09,  2.007092933323447E+09, -2.057672489192545E+07,
2459558.500000000, A.D. 2021-Dec-10 00:00:00.0000,  2.162768061829909E+09,  2.007497890685768E+09, -2.057001856919909E+07,
2459559.500000000, A.D. 2021-Dec-11 00:00:00.0000,  2.162363747747108E+09,  2.007902775284979E+09, -2.056329128161848E+07,
2459560.500000000, A.D. 2021-Dec-12 00:00:00.0000,  2.161959368090895E+09,  2.008307580026419E+09, -2.055655230037260E+07,
2459561.500000000, A.D. 2021-Dec-13 00:00:00.0000,  2.161554904859801E+09,  2.008712305999746E+09, -2.054982194002855E+07,
2459562.500000000, A.D. 2021-Dec-14 00:00:00.0000,  2.161150359779132E+09,  2.009116955779879E+09, -2.054307885692334E+07,
2459563.500000000, A.D. 2021-Dec-15 00:00:00.0000,  2.160745746471962E+09,  2.009521523680704E+09, -2.053634237746215E+07,
2459564.500000000, A.D. 2021-Dec-16 00:00:00.0000,  2.160341045450376E+09,  2.009926013365140E+09, -2.052961649689257E+07,
2459565.500000000, A.D. 2021-Dec-17 00:00:00.0000,  2.159936260510328E+09,  2.010330424414213E+09, -2.052289824851429E+07,
2459566.500000000, A.D. 2021-Dec-18 00:00:00.0000,  2.159531373046356E+09,  2.010734760885334E+09, -2.051618768363762E+07,
2459567.500000000, A.D. 2021-Dec-19 00:00:00.0000,  2.159126394945580E+09,  2.011139023957557E+09, -2.050945718132365E+07,
2459568.500000000, A.D. 2021-Dec-20 00:00:00.0000,  2.158721345316870E+09,  2.011543206410404E+09, -2.050272864504051E+07,
2459569.500000000, A.D. 2021-Dec-21 00:00:00.0000,  2.158316202436224E+09,  2.011947312885672E+09, -2.049600287770462E+07,
2459570.500000000, A.D. 2021-Dec-22 00:00:00.0000,  2.157910978963361E+09,  2.012351341956563E+09, -2.048926986752820E+07,
2459571.500000000, A.D. 2021-Dec-23 00:00:00.0000,  2.157505670322578E+09,  2.012755292856040E+09, -2.048254219331193E+07,
2459572.500000000, A.D. 2021-Dec-24 00:00:00.0000,  2.157100278930418E+09,  2.013159166522902E+09, -2.047580939488482E+07,
2459573.500000000, A.D. 2021-Dec-25 00:00:00.0000,  2.156694805082933E+09,  2.013562960238941E+09, -2.046909058571255E+07,
2459574.500000000, A.D. 2021-Dec-26 00:00:00.0000,  2.156289222376034E+09,  2.013966681807554E+09, -2.046237080390191E+07,
2459575.500000000, A.D. 2021-Dec-27 00:00:00.0000,  2.155883556897563E+09,  2.014370328419952E+09, -2.045562915157902E+07,
2459576.500000000, A.D. 2021-Dec-28 00:00:00.0000,  2.155477813032716E+09,  2.014773896448853E+09, -2.044888497161305E+07,
2459577.500000000, A.D. 2021-Dec-29 00:00:00.0000,  2.155071989107138E+09,  2.015177387226985E+09, -2.044213084043419E+07,
2459578.500000000, A.D. 2021-Dec-30 00:00:00.0000,  2.154666093116746E+09,  2.015580796965456E+09, -2.043538115646279E+07,
2459579.500000000, A.D. 2021-Dec-31 00:00:00.0000,  2.154260110496046E+09,  2.015984129479800E+09, -2.042863137102544E+07,
2459580.500000000, A.D. 2022-Jan-01 00:00:00.0000,  2.153854060798865E+09,  2.016387380483767E+09, -2.042188133679020E+07,
2459581.500000000, A.D. 2022-Jan-02 00:00:00.0000,  2.153447925636954E+09,  2.016790550043773E+09, -2.041515930090201E+07,
2459582.500000000, A.D. 2022-Jan-03 00:00:00.0000,  2.153041684966524E+09,  2.017193645941008E+09, -2.040844074794066E+07,
2459583.500000000, A.D. 2022-Jan-04 00:00:00.0000,  2.152635351931100E+09,  2.017596666149195E+09, -2.040171965844333E+07,
2459584.500000000, A.D. 2022-Jan-05 00:00:00.0000,  2.152228920036572E+09,  2.017999612907064E+09, -2.039498990861154E+07,
2459585.500000000, A.D. 2022-Jan-06 00:00:00.0000,  2.151822409682482E+09,  2.018402482514081E+09, -2.038824589719844E+07,
2459586.500000000, A.D. 2022-Jan-07 00:00:00.0000,  2.151415812513473E+09,  2.018805274440792E+09, -2.038150471050048E+07,
2459587.500000000, A.D. 2022-Jan-08 00:00:00.0000,  2.151009127720165E+09,  2.019207992008792E+09, -2.037474333219194E+07,
2459588.500000000, A.D. 2022-Jan-09 00:00:00.0000,  2.150602381967207E+09,  2.019610627121522E+09, -2.036797782184100E+07,
2459589.500000000, A.D. 2022-Jan-10 00:00:00.0000,  2.150195555274001E+09,  2.020013181827287E+09, -2.036122496319997E+07,
2459590.500000000, A.D. 2022-Jan-11 00:00:00.0000,  2.149788646248878E+09,  2.020415657585672E+09, -2.035447625610828E+07,
2459591.500000000, A.D. 2022-Jan-12 00:00:00.0000,  2.149381643945042E+09,  2.020818055765003E+09, -2.034773877070379E+07,
2459592.500000000, A.D. 2022-Jan-13 00:00:00.0000,  2.148974548820487E+09,  2.021220379554585E+09, -2.034098871462965E+07,
2459593.500000000, A.D. 2022-Jan-14 00:00:00.0000,  2.148567381429143E+09,  2.021622622622097E+09, -2.033423944874573E+07,
2459594.500000000, A.D. 2022-Jan-15 00:00:00.0000,  2.148160117831554E+09,  2.022024789335410E+09, -2.032749691306114E+07,
2459595.500000000, A.D. 2022-Jan-16 00:00:00.0000,  2.147752770345204E+09,  2.022426879863874E+09, -2.032074015313065E+07,
2459596.500000000, A.D. 2022-Jan-17 00:00:00.0000,  2.147345346946203E+09,  2.022828890126951E+09, -2.031398620751584E+07,
